#dP2019  6  6  0  0  0.00000000      96 __u+U ITR00 FIT  IAC
## 2056 345600.00000000   900.00000000 58640 0.0000000000000
+   94   C01C02C03C04C05C06C07C08C09C10C11C12C13C14C16E01E02
+        E03E04E05E07E08E09E11E12E13E14E15E18E19E21E24E25E26
+        E27E30E31E33E36G01G02G03G04G05G06G07G08G09G10G11G12
+        G13G14G15G16G17G18G19G20G21G22G23G24G25G26G27G28G29
+        G30G31G32R01R02R03R04R05R07R08R09R10R11R13R14R15R16
+        R17R18R19R20R21R22R23R24R26  0  0  0  0  0  0  0  0
++        13 12 13  0 12  9  8  9  8  8  8  8  8  8  8  5  5
++         5  5  5  5  5  5  5  5  5  5  5  5  6  5  5  5  5
++         5  5  5  5  5  4  4  4  4  3  4  4  4  4  4  4  4
++         4  4  4  4  4  4  4  4  4  4  4  4  4  3  4  4  3
++         4  4  4  6  6  6  6  5  5  5  5  5  6  6  5  5  6
++         6  6  6  6  5  5  5  6  8  0  0  0  0  0  0  0  0
%c M  cc GPS ccc cccc cccc cccc cccc ccccc ccccc ccccc ccccc
%c cc cc ccc ccc cccc cccc cccc cccc ccccc ccccc ccccc ccccc
%f  0.0000000  0.000000000  0.00000000000  0.000000000000000
%f  0.0000000  0.000000000  0.00000000000  0.000000000000000
%i    0    0    0    0      0      0      0      0         0
%i    0    0    0    0      0      0      0      0         0
/*                                                          
/*   RSA / INFORMATION & ANALYSIS CENTER (IAC) OF MCC       
/*   ULTRA-RAPID DETERMINATION                              
/* PCV:IGS14_2045 OL/AL:FES2004  NONE     YN ORB:CoN CLK:CoN
*  2019 06 06  4 30  0.00000000
PC01 -32267.650178  27104.649879   1013.647384    677.333167
PC02   4347.201071  41933.653412   -812.241878    114.241670
PC03 -14743.398747  39467.947399    363.631423    475.870916
PC04 -39605.566116  14441.787482    578.101583   -205.690040
PC05  21889.101433  35989.063990   -689.386897   -218.295713
PC06  -8924.396347  24520.584896 -32712.473606    923.382666
PC07 -23915.683134  26496.704909  22207.697452    159.953490
PC08 -15109.170306  38471.014911   9128.636604    163.414191
PC09   6954.066090  33300.284253 -24440.999436    820.133648
PC10  -6893.577698  27862.989673  30910.507342   -818.468799
PC11 -14808.542520 -22000.065334   8645.797308    292.259614
PC12   3033.955743 -21987.084332 -16807.333016    737.315878
PC13  -5725.193330  41526.650464  -5540.794786   -759.139855
PC14 -10163.602508 -15906.255145  20635.751912    578.108640
PC16  -4941.375339  26621.598982 -32234.849888   -905.604872
PE01   3233.008695  16574.527624  24306.157714   -620.232311
PE02  -3289.826314 -16553.623201 -24321.088417     63.540451
PE03 -13764.796426 -21044.140736  15612.801827   -174.227252
PE04  26079.800466  13879.828040   1864.423492   -297.002571
PE05   6700.371736 -15917.737693  24049.060259   -477.565449
PE07 -23142.881719   1502.966786 -18372.306267   -201.801332
PE08 -26194.408998 -13630.075611  -1939.836366   6344.343630
PE09  23076.709342  -1623.559379  18489.145113   6417.375177
PE11  15451.975972  -9860.735727 -23252.956441   5682.483613
PE12  14655.127562  13236.168887 -22041.015813   6360.391532
PE13 -15362.665624   9734.557859  23354.234286    388.109786
PE14  14521.480755 -15017.613891 -25070.408114   -594.655062
PE15 -14748.762924 -12822.807984  22238.915803    907.841298
PE18  -8494.456232  12930.082915  17508.048697   -691.455851
PE19  12052.104164  20977.152244 -17042.078763     -5.962762
PE21 -16782.955619  20054.762069  13853.397178   -537.643344
PE24  26820.477906 -11713.132035   4379.661854   6043.216062
PE25  16844.150892 -20052.407620 -13804.288400   1781.890293
PE26  -7250.649946  26624.916237  10708.785153   4485.738333
PE27 -26796.578478  11649.096113  -4722.900672    454.994096
PE30 -21234.858935  -3535.968017 -20329.499237   4812.959962
PE31  21071.919427   3568.806349  20487.391151   -465.389323
PE33   5492.745276  27929.727177  -8093.815254   -470.016822
PE36   6969.990909 -26677.510276 -10776.692390    703.198648
PG01 -13862.961506  20712.148622   8504.734404    -34.034878
PG02  15582.150874   -613.801437 -20878.116576   -230.675253
PG03 -19027.380631  12768.109304 -13396.684235    186.421135
PG04   9023.880503  22881.136985 -10014.007303    165.886599
PG05  26155.177274  -1542.475767  -5112.690879      0.651441
PG06   9535.903907  14080.735374 -20348.872398    185.761074
PG07  -5704.003781  25196.118841   5206.675687    -38.820987
PG08 -15375.939496   4455.354363  21260.499488   -146.355047
PG09   3637.499639  21230.209881 -15571.404880    397.252806
PG10 -11777.135111 -12370.093092  20454.178492     24.800063
PG11 -10337.162448  18622.168481  15488.966304   -590.875722
PG12  20921.381556 -10602.672162 -12512.088403    235.764225
PG13  18494.651654   5648.335921  18119.485649    -60.382973
PG14 -18333.511930 -18171.556892  -6330.143101    -77.336848
PG15  14988.759782  -6897.486903  20607.438605   -308.760058
PG16 -26423.838312   -761.235502  -4561.987573    -45.824249
PG17  14767.063072  22069.919971   2094.921814     66.947036
PG18 -15860.327710  13937.899902  15539.311219     59.562173
PG19  17791.389193  18731.490667  -6304.780586   -310.085738
PG20  -1735.598343 -15890.092463  21097.266877    525.198994
PG21   -117.378159 -24926.981313  10184.832005   -178.618425
PG22 -23538.803234  10516.593748  -5976.672816   -712.669634
PG23  -8282.852326  13575.221257 -20881.643536   -183.039786
PG24  14558.392291 -18721.983163  11460.546758    -67.094184
PG25   8718.766174 -15370.736281 -19962.375340   -763.207601
PG26 -21974.443443  -5717.538879 -13943.095505    219.884654
PG27 -20152.643061  -7688.515440  15587.890105   -150.483122
PG28   9968.086269  13405.131267  21232.604800    767.626555
PG29   1143.377653 -19130.721431 -18421.551618    183.499691
PG30   1940.105210  22286.382680  14191.490170   -118.485997
PG31 -10699.686187 -12440.338183 -20795.111285     33.052212
PG32 -16955.040320 -20524.367917    493.937713    -55.704857
PR01   8361.187177  -8781.362921  22452.134780     44.890885
PR02 -13121.259825 -13130.125192  17566.159728    372.138396
PR03 -23872.780316  -8841.233127   1987.303657     -3.724283
PR04 -20466.068990    921.029566 -15184.482710    309.022820
PR05  -5894.954017   9425.367859 -22942.446274     29.499836
PR07  23969.294329   8562.649602  -1321.844936    -21.303224
PR08  20865.963332   -519.261938  14716.453615     17.405149
PR09   2608.663903  12171.664920  22265.879963     73.578435
PR10  14531.078682    214.151411  20964.834915     51.490665
PR11  20416.470516 -13532.951198   7224.254710    -68.515457
PR13   -766.581041 -13231.083944 -21815.594510    -24.578219
PR14 -14704.170694   -208.494693 -20828.156046     39.671213
PR15 -20389.667759  13030.296300  -8049.659632    102.376719
PR16 -14003.912810  19152.610354   9491.249999      8.818149
PR17 -11355.048268 -13554.624010  18375.628870    233.504879
PR18  -9805.105766   4395.768718  23140.696634     -4.273191
PR19  -3435.578668  20000.875759  15448.835559    -34.725938
PR20   5742.254028  24650.675841  -2945.515468   -380.372537
PR21  11349.201069  13005.666001 -18792.724343    -52.313307
PR22   8947.261502  -7460.513159 -22708.606118    -22.636364
PR23    458.100660 -23032.535519 -10971.312420    232.584210
PR24  -6939.896060 -24096.352503   4707.021629   -181.257322
PR26   5049.451105  25015.119885   -101.164176     -7.974668
EOF
